[{"OBJECT_NAME":"GAOFEN-10R","OBJECT_ID":"2019-066A","EPOCH":"2026-03-09T23:14:29.289984","MEAN_MOTION":14.83155833,"ECCENTRICITY":0.00081973,"INCLINATION":98.0397,"RA_OF_ASC_NODE":21.897,"ARG_OF_PERICENTER":105.6349,"MEAN_ANOMALY":254.577,"EPHEMERIS_TYPE":0,"CLASSIFICATION_TYPE":"U","NORAD_CAT_ID":44622,"ELEMENT_SET_NO":999,"REV_AT_EPOCH":34767,"BSTAR":0.00026312767,"MEAN_MOTION_DOT":2.093e-5,"MEAN_MOTION_DDOT":0},{"OBJECT_NAME":"MAGION 3","OBJECT_ID":"1991-086E","EPOCH":"2026-03-09T13:21:19.926432","MEAN_MOTION":12.20904134,"ECCENTRICITY":0.14519361,"INCLINATION":82.5296,"RA_OF_ASC_NODE":245.0216,"ARG_OF_PERICENTER":318.5653,"MEAN_ANOMALY":31.3694,"EPHEMERIS_TYPE":0,"CLASSIFICATION_TYPE":"U","NORAD_CAT_ID":21835,"ELEMENT_SET_NO":999,"REV_AT_EPOCH":50141,"BSTAR":0.00027550962,"MEAN_MOTION_DOT":1.51e-5,"MEAN_MOTION_DDOT":0}]
